ONEWEB-0231             
1 48782U 21045R   25309.28683588  .00000276  00000+0  69867-3 0  9991
2 48782  87.8953 303.8859 0002021  98.0834 262.0526 13.15549815214905
ONEWEB-0234             
1 48783U 21045S   25309.24865920 -.00000147  00000+0 -42489-3 0  9990
2 48783  87.8955 303.8652 0002274  68.5190 291.6183 13.15549726215039
ONEWEB-0238             
1 48784U 21045T   25309.24894742 -.00000113  00000+0 -33428-3 0  9991
2 48784  87.8956 303.8595 0001998  80.7255 279.4101 13.15547227214933
ONEWEB-0240             
1 48785U 21045U   25309.27020423  .00000090  00000+0  20624-3 0  9998
2 48785  87.8972 303.8442 0002231  90.5239 269.6147 13.15549673214966
ONEWEB-0246             
1 48786U 21045V   25309.26465643  .00000785  00000+0  20519-2 0  9998
2 48786  87.8968 303.8584 0001800  97.5237 262.6097 13.15546202214833
ONEWEB-0210             
1 48787U 21045W   25309.23930146 -.00000126  00000+0 -36817-3 0  9991
2 48787  87.8964 303.8631 0002059 109.3228 250.8125 13.15549130214870
ONEWEB-0214             
1 48788U 21045X   25309.24801963 -.00000019  00000+0 -83983-4 0  9995
2 48788  87.8974 303.8484 0001809 104.4153 255.7179 13.15549999214846
ONEWEB-0221             
1 48789U 21045Y   25309.25514188 -.00000057  00000+0 -18527-3 0  9990
2 48789  87.8951 303.8679 0002019  94.8663 265.2698 13.15549913214938
ONEWEB-0213             
1 48790U 21045Z   25309.24405891 -.00000027  00000+0 -10593-3 0  9993
2 48790  87.8956 303.8793 0002000  96.8583 263.2775 13.15549359214999
ONEWEB-0212             
1 48791U 21045AA  25308.46050798 -.00000004  00000+0 -43489-4 0  9995
2 48791  87.8966 304.0222 0001892  88.6557 271.4790 13.15548363214889
ONEWEB-0227             
1 48792U 21045AB  25308.99210601  .00000146  00000+0  35407-3 0  9990
2 48792  87.8953 303.9305 0001967  92.2868 267.8487 13.15550005214906
ONEWEB-0226             
1 48793U 21045AC  25309.29000922  .00000190  00000+0  47164-3 0  9990
2 48793  87.8954 303.8792 0001943 100.2662 259.8687 13.15549181214910
ONEWEB-0224             
1 48794U 21045AD  25309.25354323 -.00000337  00000+0 -92907-3 0  9994
2 48794  87.8950 303.9213 0002787  82.8269 277.3178 13.15547662214834
ONEWEB-0233             
1 48795U 21045AE  25309.25817361 -.00000200  00000+0 -56630-3 0  9993
2 48795  87.8947 303.9313 0002136  93.7671 266.3703 13.15549138214852
ONEWEB-0190             
1 48796U 21045AF  25309.01746203 -.00000094  00000+0 -28284-3 0  9999
2 48796  87.8953 303.9417 0002448 105.1154 255.0247 13.15549604214895
ONEWEB-0236             
1 48797U 21045AG  25309.26306795 -.00000021  00000+0 -90573-4 0  9996
2 48797  87.8952 303.9037 0001836  85.2514 274.8826 13.15549164214816
