[{"OBJECT_NAME":"ONEWEB-0231","OBJECT_ID":"2021-045R","EPOCH":"2025-11-05T06:53:02.620032","MEAN_MOTION":13.15549815,"ECCENTRICITY":0.00020212,"INCLINATION":87.8953,"RA_OF_ASC_NODE":303.8859,"ARG_OF_PERICENTER":98.0834,"MEAN_ANOMALY":262.0526,"EPHEMERIS_TYPE":0,"CLASSIFICATION_TYPE":"U","NORAD_CAT_ID":48782,"ELEMENT_SET_NO":999,"REV_AT_EPOCH":21490,"BSTAR":0.00069867476,"MEAN_MOTION_DOT":2.76e-6,"MEAN_MOTION_DDOT":0},{"OBJECT_NAME":"ONEWEB-0234","OBJECT_ID":"2021-045S","EPOCH":"2025-11-05T05:58:04.154880","MEAN_MOTION":13.15549726,"ECCENTRICITY":0.0002274,"INCLINATION":87.8955,"RA_OF_ASC_NODE":303.8652,"ARG_OF_PERICENTER":68.519,"MEAN_ANOMALY":291.6183,"EPHEMERIS_TYPE":0,"CLASSIFICATION_TYPE":"U","NORAD_CAT_ID":48783,"ELEMENT_SET_NO":999,"REV_AT_EPOCH":21503,"BSTAR":-0.00042488777,"MEAN_MOTION_DOT":-1.47e-6,"MEAN_MOTION_DDOT":0},{"OBJECT_NAME":"ONEWEB-0238","OBJECT_ID":"2021-045T","EPOCH":"2025-11-05T05:58:29.057088","MEAN_MOTION":13.15547227,"ECCENTRICITY":0.00019984,"INCLINATION":87.8956,"RA_OF_ASC_NODE":303.8595,"ARG_OF_PERICENTER":80.7255,"MEAN_ANOMALY":279.4101,"EPHEMERIS_TYPE":0,"CLASSIFICATION_TYPE":"U","NORAD_CAT_ID":48784,"ELEMENT_SET_NO":999,"REV_AT_EPOCH":21493,"BSTAR":-0.00033427651,"MEAN_MOTION_DOT":-1.13e-6,"MEAN_MOTION_DDOT":0},{"OBJECT_NAME":"ONEWEB-0240","OBJECT_ID":"2021-045U","EPOCH":"2025-11-05T06:29:05.645472","MEAN_MOTION":13.15549673,"ECCENTRICITY":0.0002231,"INCLINATION":87.8972,"RA_OF_ASC_NODE":303.8442,"ARG_OF_PERICENTER":90.5239,"MEAN_ANOMALY":269.6147,"EPHEMERIS_TYPE":0,"CLASSIFICATION_TYPE":"U","NORAD_CAT_ID":48785,"ELEMENT_SET_NO":999,"REV_AT_EPOCH":21496,"BSTAR":0.00020624323,"MEAN_MOTION_DOT":9.0e-7,"MEAN_MOTION_DDOT":0},{"OBJECT_NAME":"ONEWEB-0246","OBJECT_ID":"2021-045V","EPOCH":"2025-11-05T06:21:06.315552","MEAN_MOTION":13.15546202,"ECCENTRICITY":0.00018004,"INCLINATION":87.8968,"RA_OF_ASC_NODE":303.8584,"ARG_OF_PERICENTER":97.5237,"MEAN_ANOMALY":262.6097,"EPHEMERIS_TYPE":0,"CLASSIFICATION_TYPE":"U","NORAD_CAT_ID":48786,"ELEMENT_SET_NO":999,"REV_AT_EPOCH":21483,"BSTAR":0.0020518591,"MEAN_MOTION_DOT":7.85e-6,"MEAN_MOTION_DDOT":0},{"OBJECT_NAME":"ONEWEB-0210","OBJECT_ID":"2021-045W","EPOCH":"2025-11-05T05:44:35.646144","MEAN_MOTION":13.1554913,"ECCENTRICITY":0.00020597,"INCLINATION":87.8964,"RA_OF_ASC_NODE":303.8631,"ARG_OF_PERICENTER":109.3228,"MEAN_ANOMALY":250.8125,"EPHEMERIS_TYPE":0,"CLASSIFICATION_TYPE":"U","NORAD_CAT_ID":48787,"ELEMENT_SET_NO":999,"REV_AT_EPOCH":21487,"BSTAR":-0.00036816924,"MEAN_MOTION_DOT":-1.26e-6,"MEAN_MOTION_DDOT":0},{"OBJECT_NAME":"ONEWEB-0214","OBJECT_ID":"2021-045X","EPOCH":"2025-11-05T05:57:08.896032","MEAN_MOTION":13.15549999,"ECCENTRICITY":0.00018092,"INCLINATION":87.8974,"RA_OF_ASC_NODE":303.8484,"ARG_OF_PERICENTER":104.4153,"MEAN_ANOMALY":255.7179,"EPHEMERIS_TYPE":0,"CLASSIFICATION_TYPE":"U","NORAD_CAT_ID":48788,"ELEMENT_SET_NO":999,"REV_AT_EPOCH":21484,"BSTAR":-8.3982967e-5,"MEAN_MOTION_DOT":-1.9e-7,"MEAN_MOTION_DDOT":0},{"OBJECT_NAME":"ONEWEB-0221","OBJECT_ID":"2021-045Y","EPOCH":"2025-11-05T06:07:24.258432","MEAN_MOTION":13.15549913,"ECCENTRICITY":0.00020197,"INCLINATION":87.8951,"RA_OF_ASC_NODE":303.8679,"ARG_OF_PERICENTER":94.8663,"MEAN_ANOMALY":265.2698,"EPHEMERIS_TYPE":0,"CLASSIFICATION_TYPE":"U","NORAD_CAT_ID":48789,"ELEMENT_SET_NO":999,"REV_AT_EPOCH":21493,"BSTAR":-0.00018527498,"MEAN_MOTION_DOT":-5.7e-7,"MEAN_MOTION_DDOT":0},{"OBJECT_NAME":"ONEWEB-0213","OBJECT_ID":"2021-045Z","EPOCH":"2025-11-05T05:51:26.689824","MEAN_MOTION":13.15549359,"ECCENTRICITY":0.00020009,"INCLINATION":87.8956,"RA_OF_ASC_NODE":303.8793,"ARG_OF_PERICENTER":96.8583,"MEAN_ANOMALY":263.2775,"EPHEMERIS_TYPE":0,"CLASSIFICATION_TYPE":"U","NORAD_CAT_ID":48790,"ELEMENT_SET_NO":999,"REV_AT_EPOCH":21499,"BSTAR":-0.0001059319,"MEAN_MOTION_DOT":-2.7e-7,"MEAN_MOTION_DDOT":0},{"OBJECT_NAME":"ONEWEB-0212","OBJECT_ID":"2021-045AA","EPOCH":"2025-11-04T11:03:07.889472","MEAN_MOTION":13.15548363,"ECCENTRICITY":0.00018926,"INCLINATION":87.8966,"RA_OF_ASC_NODE":304.0222,"ARG_OF_PERICENTER":88.6557,"MEAN_ANOMALY":271.479,"EPHEMERIS_TYPE":0,"CLASSIFICATION_TYPE":"U","NORAD_CAT_ID":48791,"ELEMENT_SET_NO":999,"REV_AT_EPOCH":21488,"BSTAR":-4.3488688e-5,"MEAN_MOTION_DOT":-4.0e-8,"MEAN_MOTION_DDOT":0},{"OBJECT_NAME":"ONEWEB-0227","OBJECT_ID":"2021-045AB","EPOCH":"2025-11-04T23:48:37.959264","MEAN_MOTION":13.15550005,"ECCENTRICITY":0.00019676,"INCLINATION":87.8953,"RA_OF_ASC_NODE":303.9305,"ARG_OF_PERICENTER":92.2868,"MEAN_ANOMALY":267.8487,"EPHEMERIS_TYPE":0,"CLASSIFICATION_TYPE":"U","NORAD_CAT_ID":48792,"ELEMENT_SET_NO":999,"REV_AT_EPOCH":21490,"BSTAR":0.00035407321,"MEAN_MOTION_DOT":1.46e-6,"MEAN_MOTION_DDOT":0},{"OBJECT_NAME":"ONEWEB-0226","OBJECT_ID":"2021-045AC","EPOCH":"2025-11-05T06:57:36.796608","MEAN_MOTION":13.15549181,"ECCENTRICITY":0.00019437,"INCLINATION":87.8954,"RA_OF_ASC_NODE":303.8792,"ARG_OF_PERICENTER":100.2662,"MEAN_ANOMALY":259.8687,"EPHEMERIS_TYPE":0,"CLASSIFICATION_TYPE":"U","NORAD_CAT_ID":48793,"ELEMENT_SET_NO":999,"REV_AT_EPOCH":21491,"BSTAR":0.00047164067,"MEAN_MOTION_DOT":1.9e-6,"MEAN_MOTION_DDOT":0},{"OBJECT_NAME":"ONEWEB-0224","OBJECT_ID":"2021-045AD","EPOCH":"2025-11-05T06:05:06.135072","MEAN_MOTION":13.15547662,"ECCENTRICITY":0.00027871,"INCLINATION":87.895,"RA_OF_ASC_NODE":303.9213,"ARG_OF_PERICENTER":82.8269,"MEAN_ANOMALY":277.3178,"EPHEMERIS_TYPE":0,"CLASSIFICATION_TYPE":"U","NORAD_CAT_ID":48794,"ELEMENT_SET_NO":999,"REV_AT_EPOCH":21483,"BSTAR":-0.00092907339,"MEAN_MOTION_DOT":-3.37e-6,"MEAN_MOTION_DDOT":0},{"OBJECT_NAME":"ONEWEB-0233","OBJECT_ID":"2021-045AE","EPOCH":"2025-11-05T06:11:46.199904","MEAN_MOTION":13.15549138,"ECCENTRICITY":0.00021367,"INCLINATION":87.8947,"RA_OF_ASC_NODE":303.9313,"ARG_OF_PERICENTER":93.7671,"MEAN_ANOMALY":266.3703,"EPHEMERIS_TYPE":0,"CLASSIFICATION_TYPE":"U","NORAD_CAT_ID":48795,"ELEMENT_SET_NO":999,"REV_AT_EPOCH":21485,"BSTAR":-0.00056630125,"MEAN_MOTION_DOT":-2.0e-6,"MEAN_MOTION_DDOT":0},{"OBJECT_NAME":"ONEWEB-0190","OBJECT_ID":"2021-045AF","EPOCH":"2025-11-05T00:25:08.719392","MEAN_MOTION":13.15549604,"ECCENTRICITY":0.00024484,"INCLINATION":87.8953,"RA_OF_ASC_NODE":303.9417,"ARG_OF_PERICENTER":105.1154,"MEAN_ANOMALY":255.0247,"EPHEMERIS_TYPE":0,"CLASSIFICATION_TYPE":"U","NORAD_CAT_ID":48796,"ELEMENT_SET_NO":999,"REV_AT_EPOCH":21489,"BSTAR":-0.00028283593,"MEAN_MOTION_DOT":-9.4e-7,"MEAN_MOTION_DDOT":0},{"OBJECT_NAME":"ONEWEB-0236","OBJECT_ID":"2021-045AG","EPOCH":"2025-11-05T06:18:49.070880","MEAN_MOTION":13.15549164,"ECCENTRICITY":0.00018364,"INCLINATION":87.8952,"RA_OF_ASC_NODE":303.9037,"ARG_OF_PERICENTER":85.2514,"MEAN_ANOMALY":274.8826,"EPHEMERIS_TYPE":0,"CLASSIFICATION_TYPE":"U","NORAD_CAT_ID":48797,"ELEMENT_SET_NO":999,"REV_AT_EPOCH":21481,"BSTAR":-9.0573126e-5,"MEAN_MOTION_DOT":-2.1e-7,"MEAN_MOTION_DDOT":0}]
